[Satellite]
VERSION=1.1
NAME=CZ-6A DEB
NICKNAME=CZ-6A DEB
TLE1=1 54580U 22151MG  22342.29853100  .00003991  00000+0  24222-2 0  9999
TLE2=2 54580  98.8722 346.9676 0109815  52.6162 308.4943 14.03887639  2997
STATUS=0
